QIANFAN-89              
1 63175U 25046S   25325.02765118  .00000094  00000+0  12623-3 0  9995
2 63175  88.9752 322.2870 0016238 181.9443 178.1648 13.50978313 44471
QIANFAN-90              
1 63176U 25046T   25325.05639777  .00000000  00000+0 -18444-4 0  9996
2 63176  88.9751 322.2564 0013273 178.8312 181.2873 13.50974610 44490
QIANFAN-91              
1 66033U 25233A   25324.97530870  .00000421  00000+0  21522-3 0  9999
2 66033  88.9965  64.5489 0017922 103.0433 257.2755 14.13643368  4934
QIANFAN-92              
1 66034U 25233B   25324.76405573  .00000552  00000+0  28592-3 0  9997
2 66034  88.9931  64.5712 0017384 110.3117 249.9940 14.13410157  4908
QIANFAN-93              
1 66035U 25233C   25324.68595586  .00000278  00000+0  13553-3 0  9999
2 66035  88.9963  64.5796 0017179 104.9603 255.3487 14.15201312  4895
QIANFAN-94              
1 66036U 25233D   25324.68972587  .00000508  00000+0  25906-3 0  9991
2 66036  88.9964  64.5805 0016557 104.2524 256.0503 14.14179536  4890
QIANFAN-95              
1 66037U 25233E   25325.14243889  .00000713  00000+0  29124-3 0  9994
2 66037  88.9965  64.5180 0016385 105.8587 254.4414 14.26188606  4965
QIANFAN-96              
1 66038U 25233F   25324.69300223  .00000491  00000+0  26010-3 0  9994
2 66038  88.9965  64.5804 0017658 106.3883 253.9245 14.12095668  4896
