<?xml version="1.0" encoding="UTF-8"?>
<ndm xmlns:xsi="http://www.w3.org/2001/XMLSchema-instance" xsi:noNamespaceSchemaLocation="https://sanaregistry.org/r/ndmxml_unqualified/ndmxml-2.0.0-master-2.0.xsd">
<omm id="CCSDS_OMM_VERS" version="2.0">
<header><CREATION_DATE/><ORIGINATOR/></header><body><segment><metadata><OBJECT_NAME>QIANFAN-89</OBJECT_NAME><OBJECT_ID>2025-046S</OBJECT_ID><CENTER_NAME>EARTH</CENTER_NAME><REF_FRAME>TEME</REF_FRAME><TIME_SYSTEM>UTC</TIME_SYSTEM><MEAN_ELEMENT_THEORY>SGP4</MEAN_ELEMENT_THEORY></metadata><data><meanElements><EPOCH>2025-11-21T00:39:49.061952</EPOCH><MEAN_MOTION>13.50978313</MEAN_MOTION><ECCENTRICITY>.0016238</ECCENTRICITY><INCLINATION>88.9752</INCLINATION><RA_OF_ASC_NODE>322.2870</RA_OF_ASC_NODE><ARG_OF_PERICENTER>181.9443</ARG_OF_PERICENTER><MEAN_ANOMALY>178.1648</MEAN_ANOMALY></meanElements><tleParameters><EPHEMERIS_TYPE>0</EPHEMERIS_TYPE><CLASSIFICATION_TYPE>U</CLASSIFICATION_TYPE><NORAD_CAT_ID>63175</NORAD_CAT_ID><ELEMENT_SET_NO>999</ELEMENT_SET_NO><REV_AT_EPOCH>4447</REV_AT_EPOCH><BSTAR>.12623E-3</BSTAR><MEAN_MOTION_DOT>.94E-6</MEAN_MOTION_DOT><MEAN_MOTION_DDOT>0</MEAN_MOTION_DDOT></tleParameters></data></segment></body></omm>
<omm id="CCSDS_OMM_VERS" version="2.0">
<header><CREATION_DATE/><ORIGINATOR/></header><body><segment><metadata><OBJECT_NAME>QIANFAN-90</OBJECT_NAME><OBJECT_ID>2025-046T</OBJECT_ID><CENTER_NAME>EARTH</CENTER_NAME><REF_FRAME>TEME</REF_FRAME><TIME_SYSTEM>UTC</TIME_SYSTEM><MEAN_ELEMENT_THEORY>SGP4</MEAN_ELEMENT_THEORY></metadata><data><meanElements><EPOCH>2025-11-21T01:21:12.767328</EPOCH><MEAN_MOTION>13.50974610</MEAN_MOTION><ECCENTRICITY>.0013273</ECCENTRICITY><INCLINATION>88.9751</INCLINATION><RA_OF_ASC_NODE>322.2564</RA_OF_ASC_NODE><ARG_OF_PERICENTER>178.8312</ARG_OF_PERICENTER><MEAN_ANOMALY>181.2873</MEAN_ANOMALY></meanElements><tleParameters><EPHEMERIS_TYPE>0</EPHEMERIS_TYPE><CLASSIFICATION_TYPE>U</CLASSIFICATION_TYPE><NORAD_CAT_ID>63176</NORAD_CAT_ID><ELEMENT_SET_NO>999</ELEMENT_SET_NO><REV_AT_EPOCH>4449</REV_AT_EPOCH><BSTAR>-.18444E-4</BSTAR><MEAN_MOTION_DOT>0</MEAN_MOTION_DOT><MEAN_MOTION_DDOT>0</MEAN_MOTION_DDOT></tleParameters></data></segment></body></omm>
<omm id="CCSDS_OMM_VERS" version="2.0">
<header><CREATION_DATE/><ORIGINATOR/></header><body><segment><metadata><OBJECT_NAME>QIANFAN-91</OBJECT_NAME><OBJECT_ID>2025-233A</OBJECT_ID><CENTER_NAME>EARTH</CENTER_NAME><REF_FRAME>TEME</REF_FRAME><TIME_SYSTEM>UTC</TIME_SYSTEM><MEAN_ELEMENT_THEORY>SGP4</MEAN_ELEMENT_THEORY></metadata><data><meanElements><EPOCH>2025-11-20T23:24:26.671680</EPOCH><MEAN_MOTION>14.13643368</MEAN_MOTION><ECCENTRICITY>.0017922</ECCENTRICITY><INCLINATION>88.9965</INCLINATION><RA_OF_ASC_NODE>64.5489</RA_OF_ASC_NODE><ARG_OF_PERICENTER>103.0433</ARG_OF_PERICENTER><MEAN_ANOMALY>257.2755</MEAN_ANOMALY></meanElements><tleParameters><EPHEMERIS_TYPE>0</EPHEMERIS_TYPE><CLASSIFICATION_TYPE>U</CLASSIFICATION_TYPE><NORAD_CAT_ID>66033</NORAD_CAT_ID><ELEMENT_SET_NO>999</ELEMENT_SET_NO><REV_AT_EPOCH>493</REV_AT_EPOCH><BSTAR>.21522E-3</BSTAR><MEAN_MOTION_DOT>.421E-5</MEAN_MOTION_DOT><MEAN_MOTION_DDOT>0</MEAN_MOTION_DDOT></tleParameters></data></segment></body></omm>
<omm id="CCSDS_OMM_VERS" version="2.0">
<header><CREATION_DATE/><ORIGINATOR/></header><body><segment><metadata><OBJECT_NAME>QIANFAN-92</OBJECT_NAME><OBJECT_ID>2025-233B</OBJECT_ID><CENTER_NAME>EARTH</CENTER_NAME><REF_FRAME>TEME</REF_FRAME><TIME_SYSTEM>UTC</TIME_SYSTEM><MEAN_ELEMENT_THEORY>SGP4</MEAN_ELEMENT_THEORY></metadata><data><meanElements><EPOCH>2025-11-20T18:20:14.415072</EPOCH><MEAN_MOTION>14.13410157</MEAN_MOTION><ECCENTRICITY>.00173846</ECCENTRICITY><INCLINATION>88.9931</INCLINATION><RA_OF_ASC_NODE>64.5712</RA_OF_ASC_NODE><ARG_OF_PERICENTER>110.3117</ARG_OF_PERICENTER><MEAN_ANOMALY>249.9940</MEAN_ANOMALY></meanElements><tleParameters><EPHEMERIS_TYPE>0</EPHEMERIS_TYPE><CLASSIFICATION_TYPE>U</CLASSIFICATION_TYPE><NORAD_CAT_ID>66034</NORAD_CAT_ID><ELEMENT_SET_NO>999</ELEMENT_SET_NO><REV_AT_EPOCH>490</REV_AT_EPOCH><BSTAR>.28592222E-3</BSTAR><MEAN_MOTION_DOT>.552E-5</MEAN_MOTION_DOT><MEAN_MOTION_DDOT>0</MEAN_MOTION_DDOT></tleParameters></data></segment></body></omm>
<omm id="CCSDS_OMM_VERS" version="2.0">
<header><CREATION_DATE/><ORIGINATOR/></header><body><segment><metadata><OBJECT_NAME>QIANFAN-93</OBJECT_NAME><OBJECT_ID>2025-233C</OBJECT_ID><CENTER_NAME>EARTH</CENTER_NAME><REF_FRAME>TEME</REF_FRAME><TIME_SYSTEM>UTC</TIME_SYSTEM><MEAN_ELEMENT_THEORY>SGP4</MEAN_ELEMENT_THEORY></metadata><data><meanElements><EPOCH>2025-11-20T16:27:46.586304</EPOCH><MEAN_MOTION>14.15201312</MEAN_MOTION><ECCENTRICITY>.00171799</ECCENTRICITY><INCLINATION>88.9963</INCLINATION><RA_OF_ASC_NODE>64.5796</RA_OF_ASC_NODE><ARG_OF_PERICENTER>104.9603</ARG_OF_PERICENTER><MEAN_ANOMALY>255.3487</MEAN_ANOMALY></meanElements><tleParameters><EPHEMERIS_TYPE>0</EPHEMERIS_TYPE><CLASSIFICATION_TYPE>U</CLASSIFICATION_TYPE><NORAD_CAT_ID>66035</NORAD_CAT_ID><ELEMENT_SET_NO>999</ELEMENT_SET_NO><REV_AT_EPOCH>489</REV_AT_EPOCH><BSTAR>.13552532E-3</BSTAR><MEAN_MOTION_DOT>.278E-5</MEAN_MOTION_DOT><MEAN_MOTION_DDOT>0</MEAN_MOTION_DDOT></tleParameters></data></segment></body></omm>
<omm id="CCSDS_OMM_VERS" version="2.0">
<header><CREATION_DATE/><ORIGINATOR/></header><body><segment><metadata><OBJECT_NAME>QIANFAN-94</OBJECT_NAME><OBJECT_ID>2025-233D</OBJECT_ID><CENTER_NAME>EARTH</CENTER_NAME><REF_FRAME>TEME</REF_FRAME><TIME_SYSTEM>UTC</TIME_SYSTEM><MEAN_ELEMENT_THEORY>SGP4</MEAN_ELEMENT_THEORY></metadata><data><meanElements><EPOCH>2025-11-20T16:33:12.315168</EPOCH><MEAN_MOTION>14.14179536</MEAN_MOTION><ECCENTRICITY>.00165573</ECCENTRICITY><INCLINATION>88.9964</INCLINATION><RA_OF_ASC_NODE>64.5805</RA_OF_ASC_NODE><ARG_OF_PERICENTER>104.2524</ARG_OF_PERICENTER><MEAN_ANOMALY>256.0503</MEAN_ANOMALY></meanElements><tleParameters><EPHEMERIS_TYPE>0</EPHEMERIS_TYPE><CLASSIFICATION_TYPE>U</CLASSIFICATION_TYPE><NORAD_CAT_ID>66036</NORAD_CAT_ID><ELEMENT_SET_NO>999</ELEMENT_SET_NO><REV_AT_EPOCH>489</REV_AT_EPOCH><BSTAR>.25906487E-3</BSTAR><MEAN_MOTION_DOT>.508E-5</MEAN_MOTION_DOT><MEAN_MOTION_DDOT>0</MEAN_MOTION_DDOT></tleParameters></data></segment></body></omm>
<omm id="CCSDS_OMM_VERS" version="2.0">
<header><CREATION_DATE/><ORIGINATOR/></header><body><segment><metadata><OBJECT_NAME>QIANFAN-95</OBJECT_NAME><OBJECT_ID>2025-233E</OBJECT_ID><CENTER_NAME>EARTH</CENTER_NAME><REF_FRAME>TEME</REF_FRAME><TIME_SYSTEM>UTC</TIME_SYSTEM><MEAN_ELEMENT_THEORY>SGP4</MEAN_ELEMENT_THEORY></metadata><data><meanElements><EPOCH>2025-11-21T03:25:06.720096</EPOCH><MEAN_MOTION>14.26188606</MEAN_MOTION><ECCENTRICITY>.0016385</ECCENTRICITY><INCLINATION>88.9965</INCLINATION><RA_OF_ASC_NODE>64.5180</RA_OF_ASC_NODE><ARG_OF_PERICENTER>105.8587</ARG_OF_PERICENTER><MEAN_ANOMALY>254.4414</MEAN_ANOMALY></meanElements><tleParameters><EPHEMERIS_TYPE>0</EPHEMERIS_TYPE><CLASSIFICATION_TYPE>U</CLASSIFICATION_TYPE><NORAD_CAT_ID>66037</NORAD_CAT_ID><ELEMENT_SET_NO>999</ELEMENT_SET_NO><REV_AT_EPOCH>496</REV_AT_EPOCH><BSTAR>.29124E-3</BSTAR><MEAN_MOTION_DOT>.713E-5</MEAN_MOTION_DOT><MEAN_MOTION_DDOT>0</MEAN_MOTION_DDOT></tleParameters></data></segment></body></omm>
<omm id="CCSDS_OMM_VERS" version="2.0">
<header><CREATION_DATE/><ORIGINATOR/></header><body><segment><metadata><OBJECT_NAME>QIANFAN-96</OBJECT_NAME><OBJECT_ID>2025-233F</OBJECT_ID><CENTER_NAME>EARTH</CENTER_NAME><REF_FRAME>TEME</REF_FRAME><TIME_SYSTEM>UTC</TIME_SYSTEM><MEAN_ELEMENT_THEORY>SGP4</MEAN_ELEMENT_THEORY></metadata><data><meanElements><EPOCH>2025-11-20T16:37:55.392672</EPOCH><MEAN_MOTION>14.12095668</MEAN_MOTION><ECCENTRICITY>.00176589</ECCENTRICITY><INCLINATION>88.9965</INCLINATION><RA_OF_ASC_NODE>64.5804</RA_OF_ASC_NODE><ARG_OF_PERICENTER>106.3883</ARG_OF_PERICENTER><MEAN_ANOMALY>253.9245</MEAN_ANOMALY></meanElements><tleParameters><EPHEMERIS_TYPE>0</EPHEMERIS_TYPE><CLASSIFICATION_TYPE>U</CLASSIFICATION_TYPE><NORAD_CAT_ID>66038</NORAD_CAT_ID><ELEMENT_SET_NO>999</ELEMENT_SET_NO><REV_AT_EPOCH>489</REV_AT_EPOCH><BSTAR>.26009978E-3</BSTAR><MEAN_MOTION_DOT>.491E-5</MEAN_MOTION_DOT><MEAN_MOTION_DDOT>0</MEAN_MOTION_DDOT></tleParameters></data></segment></body></omm>

</ndm>
